[
    {
        "Altitude(m)": 559025.4093332728,
        "Argument of Periapsis(deg)": 0.033114955553567506,
        "Eccentricity": 0.0,
        "Inclination(deg)": 53.0,
        "Latitude(deg)": 49.31200675277851,
        "Longitude(deg)": -64.64053865923614,
        "Mean Anomaly(deg)": -251.3601356621121,
        "RAAN(deg)": 279.95071684264,
        "Satellite Name": "Starlink Shell 1 1235",
        "Satellite Number": 1235,
        "Semi-Major Axis(m)": 6931778.249405717,
        "Time(s)": 950
    },
    {
        "Altitude(m)": 558968.4547924495,
        "Argument of Periapsis(deg)": 0.03346353403307874,
        "Eccentricity": 0.0,
        "Inclination(deg)": 53.0,
        "Latitude(deg)": 49.063081700621986,
        "Longitude(deg)": -63.803717385034275,
        "Mean Anomaly(deg)": -250.73330445855532,
        "RAAN(deg)": 279.9501980725626,
        "Satellite Name": "Starlink Shell 1 1235",
        "Satellite Number": 1235,
        "Semi-Major Axis(m)": 6931778.249405717,
        "Time(s)": 960
    },
    {
        "Altitude(m)": 558909.9962369158,
        "Argument of Periapsis(deg)": 0.03381211251258998,
        "Eccentricity": 0.0,
        "Inclination(deg)": 53.0,
        "Latitude(deg)": 48.80753426540387,
        "Longitude(deg)": -62.975731762036794,
        "Mean Anomaly(deg)": -250.1064732549986,
        "RAAN(deg)": 279.94967930248515,
        "Satellite Name": "Starlink Shell 1 1235",
        "Satellite Number": 1235,
        "Semi-Major Axis(m)": 6931778.249405717,
        "Time(s)": 970
    },
    {
        "Altitude(m)": 558850.0694466565,
        "Argument of Periapsis(deg)": 0.034160690992101214,
        "Eccentricity": 0.0,
        "Inclination(deg)": 53.0,
        "Latitude(deg)": 48.545489091038505,
        "Longitude(deg)": -62.15663902215195,
        "Mean Anomaly(deg)": -249.4796420514419,
        "RAAN(deg)": 279.94916053240763,
        "Satellite Name": "Starlink Shell 1 1235",
        "Satellite Number": 1235,
        "Semi-Major Axis(m)": 6931778.249405717,
        "Time(s)": 980
    },
    {
        "Altitude(m)": 558788.7111480475,
        "Argument of Periapsis(deg)": 0.034509269471612446,
        "Eccentricity": 0.0,
        "Inclination(deg)": 53.0,
        "Latitude(deg)": 48.277070860888195,
        "Longitude(deg)": -61.346482886652495,
        "Mean Anomaly(deg)": -248.85281084788522,
        "RAAN(deg)": 279.94864176233017,
        "Satellite Name": "Starlink Shell 1 1235",
        "Satellite Number": 1235,
        "Semi-Major Axis(m)": 6931778.249405717,
        "Time(s)": 990
    }
]